COSMOS 2433 (720)       
1 32275U 07052A   26174.95449183 -.00000082  00000+0  00000+0 0  9995
2 32275  65.5727 315.7051 0002790 194.8015 165.1813  2.13104086145203
COSMOS 2432 (719)       
1 32276U 07052B   26174.56746740 -.00000080  00000+0  00000+0 0  9990
2 32276  65.5895 315.8459 0007442 329.8815  37.0478  2.13103098145228
COSMOS 2434 (721)       
1 32393U 07065A   26175.24269938  .00000104  00000+0  00000+0 0  9995
2 32393  64.3185 191.6780 0001218 329.6541 141.2402  2.13101274143927
COSMOS 2436 (723)       
1 32395U 07065C   26173.14632410  .00000084  00000+0  00000+0 0  9990
2 32395  64.3269 191.8207 0017276 353.7327  81.1911  2.13100062143830
COSMOS 2456 (730)       
1 36111U 09070A   26175.13840201 -.00000070  00000+0  00000+0 0  9994
2 36111  65.0154  70.7346 0004336 335.5645 213.4976  2.13103579128575
COSMOS 2457 (733)       
1 36112U 09070B   26174.95633448 -.00000070  00000+0  00000+0 0  9997
2 36112  65.0012  70.5847 0003068 122.0189  54.7142  2.13101040128578
COSMOS 2460 (732)       
1 36402U 10007C   26174.30347086 -.00000079  00000+0  00000+0 0  9999
2 36402  65.4164 314.2595 0002095 116.7869 281.0538  2.13101463126867
COSMOS 2476 (744)       
1 37867U 11064A   26173.36699142 -.00000061  00000+0  00000+0 0  9998
2 37867  65.2731  72.6963 0022606 238.5611 299.8582  2.13103651113877
COSMOS 2477 (745)       
1 37868U 11064B   26171.26952727 -.00000039  00000+0  00000+0 0  9992
2 37868  65.2782  72.8466 0019648 240.0065 309.6331  2.13102843113826
COSMOS 2475 (743)       
1 37869U 11064C   26174.60679999 -.00000068  00000+0  00000+0 0  9993
2 37869  65.2869  72.7554 0025330 252.8359 292.1409  2.13101717113902
COSMOS 2485 (747)       
1 39155U 13019A   26174.01037465 -.00000064  00000+0  00000+0 0  9992
2 39155  65.4230  73.4089 0022970 233.4895 126.3311  2.13103142102401
COSMOS 2492 (754)       
1 39620U 14012A   26174.43850674 -.00000080  00000+0  00000+0 0  9992
2 39620  65.2936 313.7229 0010200 323.1119  36.8094  2.13103114 95373
COSMOS 2500 (755)       
1 40001U 14032A   26174.60818388 -.00000081  00000+0  00000+0 0  9995
2 40001  65.2280 313.4639 0007602 185.3509 174.6327  2.13105776 93593
COSMOS 2501 (702K)      
1 40315U 14075A   26174.40107182  .00000099  00000+0  00000+0 0  9999
2 40315  63.6172 190.1569 0022654 212.4936 147.4132  2.13101389 89981
COSMOS 2514 (751)       
1 41330U 16008A   26174.85480678 -.00000083  00000+0  00000+0 0  9992
2 41330  65.0172 312.7777 0011551 198.7083 161.2407  2.13102654 80763
COSMOS 2522 (752)       
1 42939U 17055A   26174.69248618  .00000100  00000+0  00000+0 0  9998
2 42939  64.1036 191.6583 0030269 259.5847 100.1235  2.13066943 68114
COSMOS 2527 (756)       
1 43508U 18053A   26174.18508716 -.00000065  00000+0  00000+0 0  9993
2 43508  65.5813  73.7072 0006869 237.6913 122.2741  2.13102059 62400
COSMOS 2529 (757)       
1 43687U 18086A   26174.28152532  .00000096  00000+0  00000+0 0  9992
2 43687  64.2950 192.3887 0012083 256.3991 103.5159  2.13101956 59414
COSMOS 2534 (758)       
1 44299U 19030A   26174.20089889  .00000095  00000+0  00000+0 0  9997
2 44299  64.3690 192.4139 0013464 275.0352 157.6045  2.13102283 55054
COSMOS 2544 (759)       
1 44850U 19088A   26175.06827285 -.00000068  00000+0  00000+0 0  9999
2 44850  65.5696  73.5010 0012943 257.9602 101.9270  2.13102868 50866
COSMOS 2545 (760)       
1 45358U 20018A   26173.38622922 -.00000076  00000+0  00000+0 0  9991
2 45358  64.3519 312.2361 0008556 229.6925 130.2259  2.13102349 48775
COSMOS 2547 (705K)      
1 46805U 20075A   26174.04506766  .00000094  00000+0  00000+0 0  9992
2 46805  64.5998 192.2800 0009389 239.8936 120.0622  2.13100075 44030
COSMOS 2557 (706K)      
1 52984U 22075A   26173.27080705 -.00000076  00000+0  00000+0 0  9994
2 52984  64.2952 314.3058 0010303 273.7574  86.1177  2.13102021 30829
COSMOS 2559 (707K)      
1 54031U 22130A   26174.96748313 -.00000084  00000+0  00000+0 0  9993
2 54031  64.2668 314.3295 0012689 178.7252 181.2697  2.13101758 28835
COSMOS 2564 (761)       
1 54377U 22161A   26174.81073219  .00000101  00000+0  00000+0 0  9999
2 54377  64.7423 192.4918 0012242 224.9828 134.9691  2.13102094 27772
COSMOS 2569 (703K)      
1 57517U 23114A   26172.94601313 -.00000057  00000+0  00000+0 0  9992
2 57517  65.3047  72.4599 0010483 296.8456  63.0820  2.13103733 22369
COSMOS 2584 (704K)      
1 63130U 25042A   26174.24058150 -.00000067  00000+0  00000+0 0  9993
2 63130  65.0880  72.5961 0006598 228.8314 131.1446  2.13103825 10172
COSMOS 2596 (708K)      
1 65590U 25206B   26174.56746730 -.00000082  00000+0  00000+0 0  9997
2 65590  64.6305 314.7627 0011000 310.5654  56.4396  2.13100914  6052
